[
    {
        "Altitude(m)": 706476.4922678833,
        "Argument of Periapsis(deg)": 0.0034170363559881197,
        "Eccentricity": 0.0,
        "Inclination(deg)": 45.0,
        "Latitude(deg)": 41.428469147537136,
        "Longitude(deg)": 171.1626966712029,
        "Mean Anomaly(deg)": 68.91446499424426,
        "RAAN(deg)": 209.9967744175626,
        "Satellite Name": "Constellation 1 928",
        "Satellite Number": 928,
        "Semi-Major Axis(m)": 7083131.272910544,
        "Time(s)": 57
    },
    {
        "Altitude(m)": 706480.9945767196,
        "Argument of Periapsis(deg)": 0.003476984362233526,
        "Eccentricity": 0.0,
        "Inclination(deg)": 45.0,
        "Latitude(deg)": 41.44906428838338,
        "Longitude(deg)": 171.23463464799755,
        "Mean Anomaly(deg)": 68.97516613449416,
        "RAAN(deg)": 209.99671782839698,
        "Satellite Name": "Constellation 1 928",
        "Satellite Number": 928,
        "Semi-Major Axis(m)": 7083131.272910544,
        "Time(s)": 58
    },
    {
        "Altitude(m)": 706485.4871353032,
        "Argument of Periapsis(deg)": 0.003536932368478932,
        "Eccentricity": 0.0,
        "Inclination(deg)": 45.0,
        "Latitude(deg)": 41.469609071737054,
        "Longitude(deg)": 171.30662047795016,
        "Mean Anomaly(deg)": 69.03586727474399,
        "RAAN(deg)": 209.99666123923143,
        "Satellite Name": "Constellation 1 928",
        "Satellite Number": 928,
        "Semi-Major Axis(m)": 7083131.272910544,
        "Time(s)": 59
    },
    {
        "Altitude(m)": 706489.9699167494,
        "Argument of Periapsis(deg)": 0.003596880374724337,
        "Eccentricity": 0.0,
        "Inclination(deg)": 45.0,
        "Latitude(deg)": 41.49010343013527,
        "Longitude(deg)": 171.3786544446097,
        "Mean Anomaly(deg)": 69.09656841499395,
        "RAAN(deg)": 209.99660465006585,
        "Satellite Name": "Constellation 1 928",
        "Satellite Number": 928,
        "Semi-Major Axis(m)": 7083131.272910544,
        "Time(s)": 60
    },
    {
        "Altitude(m)": 706494.4428942159,
        "Argument of Periapsis(deg)": 0.0036568283809697427,
        "Eccentricity": 0.0,
        "Inclination(deg)": 45.0,
        "Latitude(deg)": 41.51054729617125,
        "Longitude(deg)": 171.45073632670398,
        "Mean Anomaly(deg)": 69.15726955524384,
        "RAAN(deg)": 209.9965480609003,
        "Satellite Name": "Constellation 1 928",
        "Satellite Number": 928,
        "Semi-Major Axis(m)": 7083131.272910544,
        "Time(s)": 61
    },
    {
        "Altitude(m)": 706498.906040941,
        "Argument of Periapsis(deg)": 0.003716776387215149,
        "Eccentricity": 0.0,
        "Inclination(deg)": 45.0,
        "Latitude(deg)": 41.53094060249413,
        "Longitude(deg)": 171.52286607052733,
        "Mean Anomaly(deg)": 69.21797069549373,
        "RAAN(deg)": 209.99649147173469,
        "Satellite Name": "Constellation 1 928",
        "Satellite Number": 928,
        "Semi-Major Axis(m)": 7083131.272910544,
        "Time(s)": 62
    },
    {
        "Altitude(m)": 706503.3593302113,
        "Argument of Periapsis(deg)": 0.003776724393460554,
        "Eccentricity": 0.0,
        "Inclination(deg)": 45.0,
        "Latitude(deg)": 41.551283281809944,
        "Longitude(deg)": 171.59504362184236,
        "Mean Anomaly(deg)": 69.2786718357436,
        "RAAN(deg)": 209.99643488256913,
        "Satellite Name": "Constellation 1 928",
        "Satellite Number": 928,
        "Semi-Major Axis(m)": 7083131.272910544,
        "Time(s)": 63
    },
    {
        "Altitude(m)": 706507.8027353847,
        "Argument of Periapsis(deg)": 0.003836672399705959,
        "Eccentricity": 0.0,
        "Inclination(deg)": 45.0,
        "Latitude(deg)": 41.571575266882554,
        "Longitude(deg)": 171.66726892588,
        "Mean Anomaly(deg)": 69.33937297599353,
        "RAAN(deg)": 209.99637829340355,
        "Satellite Name": "Constellation 1 928",
        "Satellite Number": 928,
        "Semi-Major Axis(m)": 7083131.272910544,
        "Time(s)": 64
    },
    {
        "Altitude(m)": 706512.2362298854,
        "Argument of Periapsis(deg)": 0.003896620405951365,
        "Eccentricity": 0.0,
        "Inclination(deg)": 45.0,
        "Latitude(deg)": 41.591816490534235,
        "Longitude(deg)": 171.73954192733697,
        "Mean Anomaly(deg)": 69.40007411624342,
        "RAAN(deg)": 209.996321704238,
        "Satellite Name": "Constellation 1 928",
        "Satellite Number": 928,
        "Semi-Major Axis(m)": 7083131.272910544,
        "Time(s)": 65
    },
    {
        "Altitude(m)": 706516.6597871904,
        "Argument of Periapsis(deg)": 0.003956568412196771,
        "Eccentricity": 0.0,
        "Inclination(deg)": 45.0,
        "Latitude(deg)": 41.61200688564676,
        "Longitude(deg)": 171.81186257037655,
        "Mean Anomaly(deg)": 69.46077525649333,
        "RAAN(deg)": 209.99626511507245,
        "Satellite Name": "Constellation 1 928",
        "Satellite Number": 928,
        "Semi-Major Axis(m)": 7083131.272910544,
        "Time(s)": 66
    },
    {
        "Altitude(m)": 706521.0733808539,
        "Argument of Periapsis(deg)": 0.004016516418442176,
        "Eccentricity": 0.0,
        "Inclination(deg)": 45.0,
        "Latitude(deg)": 41.63214638516228,
        "Longitude(deg)": 171.88423063052977,
        "Mean Anomaly(deg)": 69.52147639674327,
        "RAAN(deg)": 209.99620852590684,
        "Satellite Name": "Constellation 1 928",
        "Satellite Number": 928,
        "Semi-Major Axis(m)": 7083131.272910544,
        "Time(s)": 67
    },
    {
        "Altitude(m)": 706525.4769844791,
        "Argument of Periapsis(deg)": 0.004076464424687581,
        "Eccentricity": 0.0,
        "Inclination(deg)": 45.0,
        "Latitude(deg)": 41.65223492208302,
        "Longitude(deg)": 171.956646387083,
        "Mean Anomaly(deg)": 69.58217753699313,
        "RAAN(deg)": 209.99615193674128,
        "Satellite Name": "Constellation 1 928",
        "Satellite Number": 928,
        "Semi-Major Axis(m)": 7083131.272910544,
        "Time(s)": 68
    },
    {
        "Altitude(m)": 706529.8705717445,
        "Argument of Periapsis(deg)": 0.004136412430932987,
        "Eccentricity": 0.0,
        "Inclination(deg)": 45.0,
        "Latitude(deg)": 41.67227242947403,
        "Longitude(deg)": 172.02910961449518,
        "Mean Anomaly(deg)": 69.642878677243,
        "RAAN(deg)": 209.9960953475757,
        "Satellite Name": "Constellation 1 928",
        "Satellite Number": 928,
        "Semi-Major Axis(m)": 7083131.272910544,
        "Time(s)": 69
    },
    {
        "Altitude(m)": 706534.2541163885,
        "Argument of Periapsis(deg)": 0.004196360437178394,
        "Eccentricity": 0.0,
        "Inclination(deg)": 45.0,
        "Latitude(deg)": 41.692258840462515,
        "Longitude(deg)": 172.1016202547844,
        "Mean Anomaly(deg)": 69.70357981749291,
        "RAAN(deg)": 209.99603875841015,
        "Satellite Name": "Constellation 1 928",
        "Satellite Number": 928,
        "Semi-Major Axis(m)": 7083131.272910544,
        "Time(s)": 70
    },
    {
        "Altitude(m)": 706538.6275922105,
        "Argument of Periapsis(deg)": 0.004256308443423799,
        "Eccentricity": 0.0,
        "Inclination(deg)": 45.0,
        "Latitude(deg)": 41.71219408823925,
        "Longitude(deg)": 172.17417824943115,
        "Mean Anomaly(deg)": 69.76428095774287,
        "RAAN(deg)": 209.99598216924454,
        "Satellite Name": "Constellation 1 928",
        "Satellite Number": 928,
        "Semi-Major Axis(m)": 7083131.272910544,
        "Time(s)": 71
    },
    {
        "Altitude(m)": 706542.9909730871,
        "Argument of Periapsis(deg)": 0.004316256449669204,
        "Eccentricity": 0.0,
        "Inclination(deg)": 45.0,
        "Latitude(deg)": 41.73207810605911,
        "Longitude(deg)": 172.24678353937614,
        "Mean Anomaly(deg)": 69.8249820979927,
        "RAAN(deg)": 209.995925580079,
        "Satellite Name": "Constellation 1 928",
        "Satellite Number": 928,
        "Semi-Major Axis(m)": 7083131.272910544,
        "Time(s)": 72
    },
    {
        "Altitude(m)": 706547.3442329372,
        "Argument of Periapsis(deg)": 0.00437620445591461,
        "Eccentricity": 0.0,
        "Inclination(deg)": 45.0,
        "Latitude(deg)": 41.75191082724224,
        "Longitude(deg)": 172.31943606502094,
        "Mean Anomaly(deg)": 69.88568323824263,
        "RAAN(deg)": 209.99586899091344,
        "Satellite Name": "Constellation 1 928",
        "Satellite Number": 928,
        "Semi-Major Axis(m)": 7083131.272910544,
        "Time(s)": 73
    },
    {
        "Altitude(m)": 706551.687345762,
        "Argument of Periapsis(deg)": 0.004436152462160016,
        "Eccentricity": 0.0,
        "Inclination(deg)": 45.0,
        "Latitude(deg)": 41.771692185174814,
        "Longitude(deg)": 172.39213559812896,
        "Mean Anomaly(deg)": 69.94638437849255,
        "RAAN(deg)": 209.99581240174786,
        "Satellite Name": "Constellation 1 928",
        "Satellite Number": 928,
        "Semi-Major Axis(m)": 7083131.272910544,
        "Time(s)": 74
    },
    {
        "Altitude(m)": 706556.0202856201,
        "Argument of Periapsis(deg)": 0.0044961004684054215,
        "Eccentricity": 0.0,
        "Inclination(deg)": 45.0,
        "Latitude(deg)": 41.79142211330893,
        "Longitude(deg)": 172.4648824142139,
        "Mean Anomaly(deg)": 70.00708551874243,
        "RAAN(deg)": 209.9957558125823,
        "Satellite Name": "Constellation 1 928",
        "Satellite Number": 928,
        "Semi-Major Axis(m)": 7083131.272910544,
        "Time(s)": 75
    }
]